[Satellite]
VERSION=1.1
NAME=AEROCUBE 12A
NICKNAME=AEROCUBE 12A
TLE1=1 43556U 18046C   22342.48015065  .00042625  00000+0  80252-3 0  9992
TLE2=2 43556  51.6348  50.8576 0007812 316.1892  43.8475 15.48070158246182
STATUS=0
